ONEWEB-0198             
1 48216U 21031G   24011.76930839  .00000126  00000+0  30488-3 0  9995
2 48216  87.8970 106.3677 0002106  95.0683 265.0687 13.14503893131907
ONEWEB-0189             
1 48217U 21031H   24011.78200441  .00000262  00000+0  67295-3 0  9994
2 48217  87.8968 106.3407 0002163  97.2863 262.8512 13.14502458131642
ONEWEB-0196             
1 48218U 21031J   24011.75979346 -.00000102  00000+0 -31069-3 0  9994
2 48218  87.8982 106.3452 0001843 103.6078 256.5257 13.14501911131642
ONEWEB-0183             
1 48219U 21031K   24011.81052967 -.00000092  00000+0 -28348-3 0  9997
2 48219  87.8974 106.3542 0001664 102.7248 257.4068 13.14504718131743
ONEWEB-0185             
1 48220U 21031L   24011.76058514 -.00000076  00000+0 -23951-3 0  9994
2 48220  87.8970 106.3368 0001627  96.6600 263.4715 13.14502162131667
ONEWEB-0187             
1 48221U 21031M   24011.80657526  .00000014  00000+0  35592-5 0  9994
2 48221  87.8984 106.3578 0001564  96.5514 263.5793 13.14502142131686
ONEWEB-0192             
1 48222U 21031N   24011.78675861  .00000228  00000+0  57975-3 0  9998
2 48222  87.8983 106.3590 0001896 103.9963 256.1378 13.14502557131596
ONEWEB-0219             
1 48223U 21031P   24011.76612694 -.00000879  00000+0 -24053-2 0  9996
2 48223  87.8969 106.3385 0001729  98.3583 261.7743 13.14505478131798
